start=new Date('2022-05-02T00:00:00.000Z').valueOf();
sats=[{"CLASSIFICATION_TYPE":"U","EPOCH":"2022-05-01T10:51:51.228000","NORAD_CAT_ID":"47876","PERIOD":"95.592","ELEMENT_SET_NO":"999","MEAN_ELEMENT_THEORY":"SGP4","MEAN_MOTION":"15.06401282","SEMIMAJOR_AXIS":"6925.345","RCS_SIZE":"LARGE","APOAPSIS":"548.891","ARG_OF_PERICENTER":"41.2292","TIME_SYSTEM":"UTC","BSTAR":"0.00003411600000","RA_OF_ASC_NODE":"113.4504","EPHEMERIS_TYPE":"0","COUNTRY_CODE":"US","SITE":"AFETR","PERIAPSIS":"545.528","TLE_LINE2":"2 47876  53.0540 113.4504 0002428  41.2292 318.8880 15.06401282 63942","LAUNCH_DATE":"2021-03-14","DECAY_DATE":null,"TLE_LINE1":"1 47876U 21021S   22121.45267625  .00000226  00000-0  34116-4 0  9992","MEAN_MOTION_DOT":"0.00000226","REF_FRAME":"TEME","FILE":"3424314","OBJECT_TYPE":"PAYLOAD","MEAN_ANOMALY":"318.8880","CENTER_NAME":"EARTH","ECCENTRICITY":"0.00024280","REV_AT_EPOCH":"6394","OBJECT_ID":"2021-021S","GP_ID":"202438648","INCLINATION":"53.0540","OBJECT_NAME":"STARLINK-2332","MEAN_MOTION_DDOT":"0.0000000000000"},{"REF_FRAME":"TEME","FILE":"3424759","MEAN_ANOMALY":"311.9003","OBJECT_TYPE":"PAYLOAD","CENTER_NAME":"EARTH","ECCENTRICITY":"0.00020170","REV_AT_EPOCH":"6396","OBJECT_ID":"2021-021T","GP_ID":"202472448","INCLINATION":"53.0551","OBJECT_NAME":"STARLINK-2333","MEAN_MOTION_DDOT":"0.0000000000000","COUNTRY_CODE":"US","EPHEMERIS_TYPE":"0","SITE":"AFETR","TLE_LINE2":"2 47877  53.0551 112.4861 0002017  48.2158 311.9003 15.06402004 63968","PERIAPSIS":"545.811","LAUNCH_DATE":"2021-03-14","TLE_LINE1":"1 47877U 21021T   22121.66645822 -.00000201  00000-0  54172-5 0  9994","DECAY_DATE":null,"MEAN_MOTION_DOT":"-0.00000201","MEAN_ELEMENT_THEORY":"SGP4","MEAN_MOTION":"15.06402004","SEMIMAJOR_AXIS":"6925.342","RCS_SIZE":"LARGE","APOAPSIS":"548.604","ARG_OF_PERICENTER":"48.2158","TIME_SYSTEM":"UTC","BSTAR":"0.00000541720000","RA_OF_ASC_NODE":"112.4861","CLASSIFICATION_TYPE":"U","EPOCH":"2022-05-01T15:59:41.990208","NORAD_CAT_ID":"47877","PERIOD":"95.592","ELEMENT_SET_NO":"999"},{"ELEMENT_SET_NO":"999","PERIOD":"95.593","NORAD_CAT_ID":"47878","EPOCH":"2022-05-01T16:15:38.132352","CLASSIFICATION_TYPE":"U","ARG_OF_PERICENTER":"43.0276","TIME_SYSTEM":"UTC","APOAPSIS":"548.736","RCS_SIZE":"LARGE","RA_OF_ASC_NODE":"112.4344","BSTAR":"-0.00000737780000","MEAN_MOTION":"15.06387246","MEAN_ELEMENT_THEORY":"SGP4","SEMIMAJOR_AXIS":"6925.388","DECAY_DATE":null,"TLE_LINE1":"1 47878U 21021U   22121.67752468 -.00000392  00000-0 -73778-5 0  9996","MEAN_MOTION_DOT":"-0.00000392","PERIAPSIS":"545.769","TLE_LINE2":"2 47878  53.0546 112.4344 0002142  43.0276 317.0880 15.06387246 63760","SITE":"AFETR","COUNTRY_CODE":"US","EPHEMERIS_TYPE":"0","LAUNCH_DATE":"2021-03-14","GP_ID":"202473199","OBJECT_ID":"2021-021U","MEAN_MOTION_DDOT":"0.0000000000000","OBJECT_NAME":"STARLINK-2335","INCLINATION":"53.0546","FILE":"3424759","REF_FRAME":"TEME","REV_AT_EPOCH":"6376","ECCENTRICITY":"0.00021420","CENTER_NAME":"EARTH","OBJECT_TYPE":"PAYLOAD","MEAN_ANOMALY":"317.0880"},{"LAUNCH_DATE":"2021-03-14","EPHEMERIS_TYPE":"0","COUNTRY_CODE":"US","SITE":"AFETR","PERIAPSIS":"545.672","TLE_LINE2":"2 47879  53.0532 127.1586 0002244  47.6045 312.5133 15.06395793 63941","MEAN_MOTION_DOT":"0.00002653","DECAY_DATE":null,"TLE_LINE1":"1 47879U 21021V   22121.74064777  .00002653  00000-0  19698-3 0  9993","MEAN_ANOMALY":"312.5133","OBJECT_TYPE":"PAYLOAD","CENTER_NAME":"EARTH","ECCENTRICITY":"0.00022440","REV_AT_EPOCH":"6394","REF_FRAME":"TEME","FILE":"3424759","INCLINATION":"53.0532","OBJECT_NAME":"STARLINK-2336","MEAN_MOTION_DDOT":"0.0000000000000","OBJECT_ID":"2021-021V","GP_ID":"202473948","CLASSIFICATION_TYPE":"U","EPOCH":"2022-05-01T17:46:31.967328","NORAD_CAT_ID":"47879","PERIOD":"95.592","ELEMENT_SET_NO":"999","SEMIMAJOR_AXIS":"6925.361","MEAN_ELEMENT_THEORY":"SGP4","MEAN_MOTION":"15.06395793","BSTAR":"0.00019698000000","RA_OF_ASC_NODE":"127.1586","RCS_SIZE":"LARGE","APOAPSIS":"548.781","TIME_SYSTEM":"UTC","ARG_OF_PERICENTER":"47.6045"},{"REV_AT_EPOCH":"6383","ECCENTRICITY":"0.00025760","CENTER_NAME":"EARTH","MEAN_ANOMALY":"326.1104","OBJECT_TYPE":"PAYLOAD","FILE":"3424759","REF_FRAME":"TEME","MEAN_MOTION_DDOT":"0.0000000000000","OBJECT_NAME":"STARLINK-2337","INCLINATION":"53.0551","GP_ID":"202474191","OBJECT_ID":"2021-021W","LAUNCH_DATE":"2021-03-14","PERIAPSIS":"545.455","TLE_LINE2":"2 47880  53.0551 122.2634 0002576  34.0050 326.1104 15.06391690 63837","SITE":"AFETR","COUNTRY_CODE":"US","EPHEMERIS_TYPE":"0","MEAN_MOTION_DOT":"-0.00000276","TLE_LINE1":"1 47880U 21021W   22121.71346172 -.00000276  00000-0  39389-6 0  9996","DECAY_DATE":null,"SEMIMAJOR_AXIS":"6925.374","MEAN_MOTION":"15.06391690","MEAN_ELEMENT_THEORY":"SGP4","RA_OF_ASC_NODE":"122.2634","BSTAR":"0.00000039389000","ARG_OF_PERICENTER":"34.0050","TIME_SYSTEM":"UTC","APOAPSIS":"549.023","RCS_SIZE":"LARGE","EPOCH":"2022-05-01T17:07:23.092608","CLASSIFICATION_TYPE":"U","ELEMENT_SET_NO":"999","PERIOD":"95.593","NORAD_CAT_ID":"47880"},{"RCS_SIZE":"LARGE","APOAPSIS":"548.390","TIME_SYSTEM":"UTC","ARG_OF_PERICENTER":"54.5312","BSTAR":"0.00005330400000","RA_OF_ASC_NODE":"122.1662","MEAN_ELEMENT_THEORY":"SGP4","MEAN_MOTION":"15.06388521","SEMIMAJOR_AXIS":"6925.384","NORAD_CAT_ID":"47881","PERIOD":"95.593","ELEMENT_SET_NO":"999","CLASSIFICATION_TYPE":"U","EPOCH":"2022-05-01T17:44:32.598816","OBJECT_ID":"2021-021X","GP_ID":"202472949","INCLINATION":"53.0563","OBJECT_NAME":"STARLINK-2339","MEAN_MOTION_DDOT":"0.0000000000000","REF_FRAME":"TEME","FILE":"3424759","OBJECT_TYPE":"PAYLOAD","MEAN_ANOMALY":"305.5831","CENTER_NAME":"EARTH","ECCENTRICITY":"0.00016480","REV_AT_EPOCH":"6380","DECAY_DATE":null,"TLE_LINE1":"1 47881U 21021X   22121.73926619  .00000512  00000-0  53304-4 0  9992","MEAN_MOTION_DOT":"0.00000512","EPHEMERIS_TYPE":"0","COUNTRY_CODE":"US","SITE":"AFETR","PERIAPSIS":"546.107","TLE_LINE2":"2 47881  53.0563 122.1662 0001648  54.5312 305.5831 15.06388521 63802","LAUNCH_DATE":"2021-03-14"},{"RCS_SIZE":"LARGE","APOAPSIS":"548.476","TIME_SYSTEM":"UTC","ARG_OF_PERICENTER":"54.7820","BSTAR":"-0.00003695800000","RA_OF_ASC_NODE":"113.7561","MEAN_ELEMENT_THEORY":"SGP4","MEAN_MOTION":"15.06389127","SEMIMAJOR_AXIS":"6925.382","NORAD_CAT_ID":"47882","PERIOD":"95.593","ELEMENT_SET_NO":"999","CLASSIFICATION_TYPE":"U","EPOCH":"2022-05-01T09:11:00.736224","OBJECT_ID":"2021-021Y","GP_ID":"202437648","INCLINATION":"53.0556","OBJECT_NAME":"STARLINK-2340","MEAN_MOTION_DDOT":"0.0000000000000","REF_FRAME":"TEME","FILE":"3424314","MEAN_ANOMALY":"305.3335","OBJECT_TYPE":"PAYLOAD","CENTER_NAME":"EARTH","ECCENTRICITY":"0.00017750","REV_AT_EPOCH":"6409","DECAY_DATE":null,"TLE_LINE1":"1 47882U 21021Y   22121.38264741 -.00000832  00000-0 -36958-4 0  9998","MEAN_MOTION_DOT":"-0.00000832","COUNTRY_CODE":"US","EPHEMERIS_TYPE":"0","SITE":"AFETR","PERIAPSIS":"546.018","TLE_LINE2":"2 47882  53.0556 113.7561 0001775  54.7820 305.3335 15.06389127 64098","LAUNCH_DATE":"2021-03-14"},{"RCS_SIZE":"LARGE","APOAPSIS":"548.509","ARG_OF_PERICENTER":"52.7111","TIME_SYSTEM":"UTC","BSTAR":"-0.00003167900000","RA_OF_ASC_NODE":"117.3927","MEAN_ELEMENT_THEORY":"SGP4","MEAN_MOTION":"15.06400544","SEMIMAJOR_AXIS":"6925.347","NORAD_CAT_ID":"47883","PERIOD":"95.592","ELEMENT_SET_NO":"999","CLASSIFICATION_TYPE":"U","EPOCH":"2022-05-01T16:28:14.061504","OBJECT_ID":"2021-021Z","GP_ID":"202473449","INCLINATION":"53.0542","OBJECT_NAME":"STARLINK-2342","MEAN_MOTION_DDOT":"0.0000000000000","REF_FRAME":"TEME","FILE":"3424759","OBJECT_TYPE":"PAYLOAD","MEAN_ANOMALY":"307.4048","CENTER_NAME":"EARTH","ECCENTRICITY":"0.00018730","REV_AT_EPOCH":"6407","TLE_LINE1":"1 47883U 21021Z   22121.68627386 -.00000754  00000-0 -31679-4 0  9998","DECAY_DATE":null,"MEAN_MOTION_DOT":"-0.00000754","EPHEMERIS_TYPE":"0","COUNTRY_CODE":"US","SITE":"AFETR","PERIAPSIS":"545.915","TLE_LINE2":"2 47883  53.0542 117.3927 0001873  52.7111 307.4048 15.06400544 64079","LAUNCH_DATE":"2021-03-14"},{"OBJECT_NAME":"STARLINK-2343","MEAN_MOTION_DDOT":"0.0000000000000","INCLINATION":"53.0546","GP_ID":"202473692","OBJECT_ID":"2021-021AA","ECCENTRICITY":"0.00019770","REV_AT_EPOCH":"6383","OBJECT_TYPE":"PAYLOAD","MEAN_ANOMALY":"310.7302","CENTER_NAME":"EARTH","FILE":"3424759","REF_FRAME":"TEME","MEAN_MOTION_DOT":"0.00000768","DECAY_DATE":null,"TLE_LINE1":"1 47884U 21021AA  22121.73557214  .00000768  00000-0  70462-4 0  9993","LAUNCH_DATE":"2021-03-14","SITE":"AFETR","TLE_LINE2":"2 47884  53.0546 122.1783 0001977  49.3859 310.7302 15.06399857 63831","PERIAPSIS":"545.845","EPHEMERIS_TYPE":"0","COUNTRY_CODE":"US","BSTAR":"0.00007046200000","RA_OF_ASC_NODE":"122.1783","ARG_OF_PERICENTER":"49.3859","TIME_SYSTEM":"UTC","RCS_SIZE":"LARGE","APOAPSIS":"548.583","SEMIMAJOR_AXIS":"6925.349","MEAN_ELEMENT_THEORY":"SGP4","MEAN_MOTION":"15.06399857","PERIOD":"95.592","ELEMENT_SET_NO":"999","NORAD_CAT_ID":"47884","EPOCH":"2022-05-01T17:39:13.432896","CLASSIFICATION_TYPE":"U"},{"MEAN_ANOMALY":"307.2765","OBJECT_TYPE":"PAYLOAD","CENTER_NAME":"EARTH","ECCENTRICITY":"0.00019080","REV_AT_EPOCH":"6392","REF_FRAME":"TEME","FILE":"3424759","INCLINATION":"53.0548","OBJECT_NAME":"STARLINK-2344","MEAN_MOTION_DDOT":"0.0000000000000","OBJECT_ID":"2021-021AB","GP_ID":"202472449","LAUNCH_DATE":"2021-03-14","COUNTRY_CODE":"US","EPHEMERIS_TYPE":"0","SITE":"AFETR","TLE_LINE2":"2 47885  53.0548 127.1948 0001908  52.8398 307.2765 15.06388840 63927","PERIAPSIS":"545.926","MEAN_MOTION_DOT":"0.00001307","TLE_LINE1":"1 47885U 21021AB  22121.72959191  .00001307  00000-0  10665-3 0  9991","DECAY_DATE":null,"SEMIMAJOR_AXIS":"6925.383","MEAN_ELEMENT_THEORY":"SGP4","MEAN_MOTION":"15.06388840","BSTAR":"0.00010665000000","RA_OF_ASC_NODE":"127.1948","RCS_SIZE":"LARGE","APOAPSIS":"548.569","ARG_OF_PERICENTER":"52.8398","TIME_SYSTEM":"UTC","CLASSIFICATION_TYPE":"U","EPOCH":"2022-05-01T17:30:36.741024","NORAD_CAT_ID":"47885","PERIOD":"95.593","ELEMENT_SET_NO":"999"}];
